EUTELSAT 115 WEST B     
1 40425U 15010B   24278.54834229 -.00000017  00000+0  00000+0 0  9999
2 40425   0.0173 340.0117 0000066 152.7850 323.4380  1.00270851 35212
EXPRESS-AM7             
1 40505U 15012A   24278.36646559  .00000158  00000+0  00000+0 0  9992
2 40505   0.0123 248.5330 0002493 312.5211 344.4462  1.00269686 34787
IRNSS-1D                
1 40547U 15018A   24278.34424619 -.00000287  00000+0  00000+0 0  9997
2 40547  27.2744 250.8152 0018710 193.5167 164.8734  1.00269622 34750
BEIDOU-3S IGSO-1S       
1 40549U 15019A   24278.46726708 -.00000161  00000+0  00000+0 0  9998
2 40549  50.3702 302.8974 0036298 197.9683 137.7299  1.00281710 34842
THOR 7                  
1 40613U 15022A   24278.11397108 -.00000001  00000+0  00000+0 0  9997
2 40613   0.0174 137.6818 0002552  54.6244 221.3744  1.00272296 34583
TURKMENALEM52E/MONACOSAT
1 40617U 15023A   24277.71090917  .00000109  00000+0  00000+0 0  9993
2 40617   0.0193 201.6540 0002536   4.9885 114.2253  1.00274329 34611
DIRECTV 15              
1 40663U 15026A   24277.38868883 -.00000097  00000+0  00000+0 0  9992
2 40663   0.0371  92.8506 0000234 330.9241 345.8850  1.00268560 34236
SKY MEXICO-1            
1 40664U 15026B   24278.37896785 -.00000227  00000+0  00000+0 0  9990
2 40664   0.0218  18.9699 0002045 175.4376 236.8276  1.00273070 34224
METEOSAT-11 (MSG-4)     
1 40732U 15034A   24278.32714161  .00000074  00000+0  00000+0 0  9996
2 40732   1.6475  70.8424 0001688 182.5392 247.4142  1.00278883  1001
STAR ONE C4             
1 40733U 15034B   24277.38177589 -.00000260  00000+0  00000+0 0  9997
2 40733   0.0097 286.0850 0000965 273.8620 240.0588  1.00267946 33785
WGS F7 (USA 263)        
1 40746U 15036A   24278.56381549  .00000026  00000+0  00000+0 0  9996
2 40746   0.0106 183.3537 0000147  28.3474 180.0521  1.00270547 33649
INTELSAT 34 (IS-34)     
1 40874U 15039A   24278.31428331 -.00000277  00000+0  00000+0 0  9994
2 40874   0.0197 216.7408 0000983 163.3345  51.0472  1.00267762 33393
EUTELSAT 8 WEST B       
1 40875U 15039B   24278.42757712 -.00000058  00000+0  00000+0 0  9992
2 40875   0.0680 355.4605 0003597 201.6771 322.3981  1.00271095 33421
GSAT-6                  
1 40880U 15041A   24278.40327388 -.00000153  00000+0  00000+0 0  9997
2 40880   0.3057  92.0315 0003210 107.5276  41.7282  1.00272180 33372
INMARSAT 5-F3           
1 40882U 15042A   24276.52271450  .00000052  00000+0  00000+0 0  9996
2 40882   0.0123 130.9318 0000267 341.4089 267.1477  1.00272287 33312
MUOS-4                  
1 40887U 15044A   24278.20292168 -.00000085  00000+0  00000+0 0  9996
2 40887   3.2592  34.4688 0051701   0.0385 126.9789  1.00272795 33330
TJS-1                   
1 40892U 15046A   24278.46342140 -.00000147  00000+0  00000+0 0  9997
2 40892   0.0307 289.1856 0003936  60.6658 345.6267  1.00274512 33333
EXPRESS-AM8             
1 40895U 15048A   24278.32253696 -.00000103  00000+0  00000+0 0  9996
2 40895   0.0135 245.4328 0000110 231.6677 358.5349  1.00272378 33125
BEIDOU-3S IGSO-2S       
1 40938U 15053A   24277.86461427 -.00000131  00000+0  00000+0 0  9992
2 40938  50.1930 266.1321 0052648 190.3257 324.1789  1.00282041 33128
SKY MUSTER 1 (NBN1A)    
1 40940U 15054A   24278.35311885 -.00000270  00000+0  00000+0 0  9997
2 40940   0.0140 234.4916 0001663 313.1928  93.2306  1.00272881 33037
ARSAT 2                 
1 40941U 15054B   24278.38065993 -.00000217  00000+0  00000+0 0  9998
2 40941   0.0275 298.2441 0001817 247.5057 243.8565  1.00271024 33085
MORELOS 3               
1 40946U 15056A   24278.54978708 -.00000038  00000+0  00000+0 0  9991
2 40946   2.9904 355.6193 0003279 181.5654 281.3619  1.00272067 33058
APSTAR-9                
1 40982U 15059A   24278.37983042 -.00000258  00000+0  00000+0 0  9996
2 40982   0.0111 189.0082 0002550 345.7174 117.5793  1.00269154 32892
TURKSAT 4B              
1 40984U 15060A   24278.19216141  .00000122  00000+0  00000+0 0  9998
2 40984   0.0614  84.6722 0002678  54.6939 353.1832  1.00271751 32875
ZHONGXING-2C            
1 41021U 15063A   24278.47046528 -.00000316  00000+0  00000+0 0  9991
2 41021   0.0767  68.3119 0005104 120.4404  97.7475  1.00270520 32778
GSAT-15                 
1 41028U 15065A   24278.39771652 -.00000251  00000+0  00000+0 0  9992
2 41028   0.0142 248.8840 0002317 291.6852  69.7006  1.00272761 32575
BADR-7 (ARABSAT-6B)     
1 41029U 15065B   24278.37202019  .00000153  00000+0  00000+0 0  9997
2 41029   0.0290 220.8777 0006654   6.5820 306.0199  1.00273391 32542
LAOSAT 1                
1 41034U 15067A   24278.35077307 -.00000335  00000+0  00000+0 0  9996
2 41034   0.0396 318.3070 0001843 170.7116 139.3182  1.00270649 32633
TELSTAR 12V             
1 41036U 15068A   24278.43313448 -.00000110  00000+0  00000+0 0  9998
2 41036   0.0148 246.2615 0002310 308.5000 319.8036  1.00271962 32404
ELEKTRO-L 2             
1 41105U 15074A   24278.32236319 -.00000105  00000+0  00000+0 0  9995
2 41105   5.1156  78.1164 0002963 164.6550 232.3463  1.00272410 32280
COSMOS 2513             
1 41121U 15075A   24278.45952229 -.00000131  00000+0  00000+0 0  9992
2 41121   0.0534 103.9899 0002225 146.0934   9.2446  1.00272731 32317
EXPRESS-AMU1            
1 41191U 15082A   24278.36646559  .00000163  00000+0  00000+0 0  9997
2 41191   0.0179 184.7019 0002317  25.1644 331.6760  1.00271455 32040
GAOFEN-4                
1 41194U 15083A   24278.53382584 -.00000326  00000+0  00000+0 0  9997
2 41194   0.0521 301.1523 0001632 315.2870  55.1510  1.00269239 32264
BELINTERSAT-1           
1 41238U 16001A   24278.19250894  .00000114  00000+0  00000+0 0  9991
2 41238   0.0452 347.4020 0001210 229.6832 277.0814  1.00272920 32015
IRNSS-1E                
1 41241U 16003A   24278.34755850 -.00000273  00000+0  00000+0 0  9993
2 41241  31.8800  71.8486 0020866 180.0557 358.5525  1.00277025 31850
EUTELSAT 9B             
1 41310U 16005A   24276.38174532  .00000063  00000+0  00000+0 0  9992
2 41310   0.0504  46.9594 0003717 178.2301 292.8616  1.00275224 31873
SES-9                   
1 41380U 16013A   24277.86568980 -.00000339  00000+0  00000+0 0  9993
2 41380   0.0266 282.0150 0001541 212.1303 298.8649  1.00271272 31207
EUTELSAT 65 WEST A      
1 41382U 16014A   24278.38378762 -.00000269  00000+0  00000+0 0  9993
2 41382   0.0705 323.0313 0002113 232.2700 251.2518  1.00271629 31422
IRNSS-1F                
1 41384U 16015A   24278.15743778  .00000169  00000+0  00000+0 0  9992
2 41384   3.8194 113.9221 0020705 176.4927 172.0074  1.00271765 31437
BEIDOU-2 IGSO-6         
1 41434U 16021A   24277.85558904 -.00000150  00000+0  00000+0 0  9997
2 41434  59.3450  44.2609 0053645 222.3134 148.7015  1.00293836 31258
IRNSS-1G                
1 41469U 16027A   24278.35103372 -.00000324  00000+0  00000+0 0  9995
2 41469   3.6870 115.0270 0003639  17.7661 136.7055  1.00270247 30952
JCSAT-2B                
1 41471U 16028A   24278.46140189 -.00000158  00000+0  00000+0 0  9993
2 41471   0.0208 192.8050 0000970 355.5294 145.3919  1.00268184 30895
THAICOM 8               
1 41552U 16031A   24278.40327388 -.00000115  00000+0  00000+0 0  9992
2 41552   0.0738  42.9653 0001468 162.1405  32.2097  1.00273084 30498
INTELSAT 31 (IS-31)     
1 41581U 16035A   24278.21694708 -.00000143  00000+0  00000+0 0  9991
2 41581   0.0103 211.4069 0001175 314.6409 190.4029  1.00271091 30468
BEIDOU-2 G7             
1 41586U 16037A   24278.47458656 -.00000344  00000+0  00000+0 0  9999
2 41586   1.6377  66.1776 0006622 351.6116 237.2071  1.00267068   666
ABS-2A (MONGOLSAT-1)    
1 41588U 16038A   24277.05303368 -.00000080  00000+0  00000+0 0  9991
2 41588   0.0240 203.3638 0001259 300.2777 322.4078  1.00268012 30472
EUTELSAT 117 WEST B     
1 41589U 16038B   24277.37247969 -.00000007  00000+0  00000+0 0  9990
2 41589   0.0240  44.7366 0000159 141.8571 203.0783  1.00272491 30470
BRISAT                  
1 41591U 16039A   24277.33035449 -.00000191  00000+0  00000+0 0  9992
2 41591   0.0194 234.6412 0002183 310.6766  96.6450  1.00272486 30408
ECHOSTAR 18             
1 41592U 16039B   24277.32688009 -.00000278  00000+0  00000+0 0  9994
2 41592   0.0024 110.8660 0001544  68.5912 249.4140  1.00272749 30386
MUOS-5                  
1 41622U 16041A   24278.55574987 -.00000140  00000+0  00000+0 0  9994
2 41622   3.6261 296.7972 0200426 255.3310 276.7470  1.00272393 30845
TIANTONG-1 1            
1 41725U 16048A   24278.34980059 -.00000310  00000+0  00000+0 0  9992
2 41725   2.7804  32.7946 0002580 264.2892 303.8208  1.00275126 30046
JCSAT-16                
1 41729U 16050A   24276.22549635 -.00000251  00000+0  00000+0 0  9999
2 41729   0.0243 185.8451 0001453 280.9901 129.7204  1.00268383 29825
INTELSAT 36 (IS-36)     
1 41747U 16053A   24277.50917410 -.00000019  00000+0  00000+0 0  9996
2 41747   0.0106 211.5721 0002084 161.4845 251.4268  1.00269681 29714
INTELSAT 33E (IS-33E)   
1 41748U 16053B   24278.19415966  .00000056  00000+0  00000+0 0  9992
2 41748   0.0177 235.8260 0002206 317.5342 309.9328  1.00271108 30021
INSAT-3DR               
1 41752U 16054A   24278.40882847 -.00000070  00000+0  00000+0 0  9995
2 41752   0.1029  92.6608 0012600 170.4934 331.6248  1.00271898 29599
GSAT-18                 
1 41793U 16060A   24276.24979906 -.00000077  00000+0  00000+0 0  9997
2 41793   0.0457 102.0640 0001656  99.7493 333.5818  1.00272527 29282
SKY MUSTER 2 (NBN1B)    
1 41794U 16060B   24276.22549635 -.00000244  00000+0  00000+0 0  9994
2 41794   0.0135 241.9772 0001567 304.1412  51.3113  1.00272371 29279
HIMAWARI-9              
1 41836U 16064A   24278.35320572 -.00000267  00000+0  00000+0 0  9993
2 41836   0.0349 158.6828 0000941  47.6810  75.1136  1.00272048 28982
SHIJIAN-17 (SJ-17)      
1 41838U 16065A   24278.65144743 -.00000018  00000+0  00000+0 0  9997
2 41838   4.1634  80.0702 0002119 209.7866 127.7953  1.00273437 29004
